[
{"label":"长春Changchun0431","name":"长春","pinyin":"cc","zip":"0431"},
{"label":"长沙Changsha0731","name":"长沙","pinyin":"cs","zip":"0731"},
{"label":"常州Changzhou0519","name":"常州","pinyin":"cz","zip":"0519"},
{"label":"东莞Dongguan0769","name":"东莞","pinyin":"dg","zip":"0769"},
{"label":"福州Fuzhou0591","name":"福州","pinyin":"fz","zip":"0591"},
{"label":"贵阳Guiyang0851","name":"贵阳","pinyin":"gy","zip":"0851"},
{"label":"哈尔滨Haerbin0451","name":"哈尔滨","pinyin":"heb","zip":"0451"},
{"label":"合肥Hefei0551","name":"合肥","pinyin":"Hf","zip":"0551"},
{"label":"嘉兴Jiaxing0573","name":"嘉兴","pinyin":"Jx","zip":"0573"},
{"label":"昆明Kunming0871","name":"昆明","pinyin":"Km","zip":"0871"},
{"label":"南昌Nanchang0791","name":"南昌","pinyin":"Nc","zip":"0791"},
{"label":"宁波Ningbo0574","name":"宁波","pinyin":"Nb","zip":"0574"},
{"label":"青岛Qingdao0532","name":"青岛","pinyin":"Qd","zip":"0532"},
{"label":"沈阳Shenyang024","name":"沈阳","pinyin":"Sy","zip":"024"},
{"label":"石家庄Shijiazhuang0311","name":"石家庄","pinyin":"Sjz","zip":"0311"},
{"label":"厦门Xiamen0592","name":"厦门","pinyin":"Xm","zip":"0592"},
{"label":"西安Xian029","name":"西安","pinyin":"xa","zip":"029"},
{"label":"烟台Yantai0535","name":"烟台","pinyin":"yt","zip":"0535"},
{"label":"中山Zhongshan0760","name":"中山","pinyin":"zs","zip":"0760"},
{"label":"珠海Zhuhai0756","name":"珠海","pinyin":"zh","zip":"0756"},
{"label":"蚌埠Bangbu0552","name":"蚌埠","pinyin":"Bengbu","zip":"0552"},
{"label":"大庆Daqing0459","name":"大庆","pinyin":"Daqing","zip":"0459"},
{"label":"大同Datong0352","name":"大同","pinyin":"Datong","zip":"0352"},
{"label":"大兴安岭Daxinganling0457","name":"大兴安岭","pinyin":"dxanling","zip":"0457"},
{"label":"达州Dazhou0818","name":"达州","pinyin":"Dazhou","zip":"0818"},
{"label":"德宏Dehong0692","name":"德宏","pinyin":"Dehong","zip":"0692"},
{"label":"德阳Deyang0838","name":"德阳","pinyin":"Deyang","zip":"0838"},
{"label":"德州Dezhou0534","name":"德州","pinyin":"Dezhou","zip":"0534"},
{"label":"定西Dingxi0932","name":"定西","pinyin":"Dingxi","zip":"0932"},
{"label":"迪庆Diqing0887","name":"迪庆","pinyin":"Diqing","zip":"0887"},
{"label":"东营Dongying0546","name":"东营","pinyin":"Dongying","zip":"0546"},
{"label":"鄂尔多斯Eerduosi0477","name":"鄂尔多斯","pinyin":"Eerduosi","zip":"0477"},
{"label":"恩施Enshi0718","name":"恩施","pinyin":"Enshi","zip":"0718"},
{"label":"鄂州Ezhou0711","name":"鄂州","pinyin":"Ezhou","zip":"0711"},
{"label":"防城港Fangchenggang0770","name":"防城港","pinyin":"Fangchenggang","zip":"0770"},
{"label":"抚顺Fushun0413","name":"抚顺","pinyin":"Fushun","zip":"0413"},
{"label":"阜新Fuxin0418","name":"阜新","pinyin":"Fuxin","zip":"0418"},
{"label":"阜阳Fuyang0558","name":"阜阳","pinyin":"Fuyang","zip":"0558"},
{"label":"抚州Fuzhou0794","name":"抚州","pinyin":"Fuzhoushi","zip":"0794"},
{"label":"甘南Gannan0941","name":"甘南","pinyin":"Gannan","zip":"0941"},
{"label":"赣州Ganzhou0797","name":"赣州","pinyin":"Ganzhou","zip":"0797"},
{"label":"甘孜Ganzi0836","name":"甘孜","pinyin":"Ganzi","zip":"0836"},
{"label":"广安Guangan0826","name":"广安","pinyin":"Guangan","zip":"0826"},
{"label":"广元Guangyuan0839","name":"广元","pinyin":"Guangyuan","zip":"0839"},
{"label":"贵港Guigang0775","name":"贵港","pinyin":"Guigang","zip":"0775"},
{"label":"桂林Guilin0773","name":"桂林","pinyin":"Guilin","zip":"0773"},
{"label":"果洛Guoluo0975","name":"果洛","pinyin":"Guoluo","zip":"0975"},
{"label":"固原Guyuan0954","name":"固原","pinyin":"Guyuan","zip":"0954"},
{"label":"海北Haibei0970","name":"海北","pinyin":"Haibei","zip":"0970"},
{"label":"海东Haidong0972","name":"海东","pinyin":"Haidong","zip":"0972"},
{"label":"海南Hainan0974","name":"海南","pinyin":"Hainan","zip":"0974"},
{"label":"海西Haixi0977","name":"海西","pinyin":"Haixi","zip":"0977"},
{"label":"哈密Hami0902","name":"哈密","pinyin":"Hami","zip":"0902"},
{"label":"汉中Hanzhong0916","name":"汉中","pinyin":"Hanzhong","zip":"0916"},
{"label":"鹤壁Hebi0392","name":"鹤壁","pinyin":"Hebi","zip":"0392"},
{"label":"河池Hechi0778","name":"河池","pinyin":"Hechi","zip":"0778"},
{"label":"鹤岗Hegang0468","name":"鹤岗","pinyin":"Hegang","zip":"0468"},
{"label":"黑河Heihe0456","name":"黑河","pinyin":"Heihe","zip":"0456"},
{"label":"衡水Hengshui0318","name":"衡水","pinyin":"Hengshui","zip":"0318"},
{"label":"衡阳Hengyang0734","name":"衡阳","pinyin":"Hengyang","zip":"0734"},
{"label":"和田地Hetiandi0903","name":"和田地","pinyin":"Hetiandi","zip":"0903"},
{"label":"河源Heyuan0762","name":"河源","pinyin":"Heyuan","zip":"0762"},
{"label":"菏泽Heze0530","name":"菏泽","pinyin":"Heze","zip":"0530"},
{"label":"贺州Hezhou0774","name":"贺州","pinyin":"Hezhou","zip":"0774"},
{"label":"红河Honghe0873","name":"红河","pinyin":"Honghe","zip":"0873"},
{"label":"淮安Huaian0517","name":"淮安","pinyin":"Huaian","zip":"0517"},
{"label":"淮北Huaibei0561","name":"淮北","pinyin":"Huaibei","zip":"0561"},
{"label":"怀化Huaihua0745","name":"怀化","pinyin":"Huaihua","zip":"0745"},
{"label":"淮南Huainan0554","name":"淮南","pinyin":"Huainan","zip":"0554"},
{"label":"黄冈Huanggang0713","name":"黄冈","pinyin":"Huanggang","zip":"0713"},
{"label":"黄南Huangnan0973","name":"黄南","pinyin":"Huangnan","zip":"0973"},
{"label":"黄山Huangshan0559","name":"黄山","pinyin":"Huangshan","zip":"0559"},
{"label":"黄石Huangshi0714","name":"黄石","pinyin":"Huangshi","zip":"0714"},
{"label":"喀什地Kashidi0998","name":"喀什地","pinyin":"Kashi","zip":"0998"},
{"label":"克孜勒Kezile0908","name":"克孜勒","pinyin":"lezilesu","zip":"0908"},
  {"label":"六安Liuan0564","name":"六安","pinyin":"Luan","zip":"0564"},
{"label":"临沧Lincang0883","name":"临沧","pinyin":"Lingcang","zip":"0883"},
{"label":"平顶山Pingdingshan0375","name":"平顶山","pinyin":"Pingdingsha","zip":"0375"},
{"label":"黔东Qiandong0855","name":"黔东","pinyin":"Qiandongnan","zip":"0855"},
{"label":"日喀则Rikaze0892","name":"日喀则","pinyin":"Rikaze","zip":"0892"},
{"label":"塔城地Tachengdi0901","name":"塔城地","pinyin":"kelamayi","zip":"0901"},
{"label":"太原Taiyuan0351","name":"太原","pinyin":"Ty","zip":"0351"},
{"label":"襄樊Xiangfan0710","name":"襄樊","pinyin":"Xiangyang","zip":"0710"},
{"label":"锡林郭勒盟Xilinguolemeng0479","name":"锡林郭勒盟","pinyin":"Xilinguole","zip":"0479"},
{"label":"西双版纳Xishuangbanna0691","name":"西双版纳","pinyin":"bannan","zip":"0691"},
{"label":"伊犁哈萨克Yilihasake0999","name":"伊犁哈萨克","pinyin":"Yili","zip":"0999"},
{"label":"云浮Yunfu0766","name":"云浮","pinyin":"Yufu","zip":"0766"},
{"label":"中卫Zhongwei0955","name":"中卫","pinyin":"weizhong","zip":"0955"}
]